{
  "norad_id": 45454,
  "name": "ONEWEB-0034",
  "history": [
    {
      "epoch": "2026-04-13T06:33:28.074240Z",
      "apogee_km": 1219.1019425254544,
      "perigee_km": 1216.26338471716,
      "latitude_deg": -6.77418707804278e-05,
      "longitude_deg": 94.1275331986763,
      "height_km": 1220.286909034627,
      "semi_major_axis_km": 7595.819663621307,
      "eccentricity": 0.00018685,
      "inclination_deg": 87.892,
      "raan_deg": 33.9609,
      "arg_perigee_deg": 78.5446,
      "mean_anomaly_deg": 281.5891,
      "mean_motion_rev_day": 13.11416954
    },
    {
      "epoch": "2026-04-14T21:00:41.124672Z",
      "apogee_km": 1219.106796198923,
      "perigee_km": 1216.2553260987688,
      "latitude_deg": 3.611794431325424e-05,
      "longitude_deg": -124.57437231696942,
      "height_km": 1220.2843936003726,
      "semi_major_axis_km": 7595.818061148846,
      "eccentricity": 0.0001877,
      "inclination_deg": 87.8923,
      "raan_deg": 33.6426,
      "arg_perigee_deg": 78.5609,
      "mean_anomaly_deg": 281.573,
      "mean_motion_rev_day": 13.11417369
    },
    {
      "epoch": "2026-04-15T20:48:57.673152Z",
      "apogee_km": 1219.1062143787094,
      "perigee_km": 1216.2517067407316,
      "latitude_deg": 5.589991297172034e-06,
      "longitude_deg": -122.8179435628087,
      "height_km": 1220.2845635197536,
      "semi_major_axis_km": 7595.81596055972,
      "eccentricity": 0.0001879,
      "inclination_deg": 87.8925,
      "raan_deg": 33.4456,
      "arg_perigee_deg": 78.6661,
      "mean_anomaly_deg": 281.4678,
      "mean_motion_rev_day": 13.11417913
    },
    {
      "epoch": "2026-04-16T13:17:46.011264Z",
      "apogee_km": 1219.096875505994,
      "perigee_km": 1216.256041272556,
      "latitude_deg": -7.335327644577457e-05,
      "longitude_deg": -10.83256734794076,
      "height_km": 1220.2768225055192,
      "semi_major_axis_km": 7595.813458389275,
      "eccentricity": 0.000187,
      "inclination_deg": 87.8925,
      "raan_deg": 33.3092,
      "arg_perigee_deg": 78.3939,
      "mean_anomaly_deg": 281.7398,
      "mean_motion_rev_day": 13.11418561
    },
    {
      "epoch": "2026-04-17T16:45:46.460160Z",
      "apogee_km": 1219.0793382982783,
      "perigee_km": 1216.2691919626313,
      "latitude_deg": -1.0770308683030353e-05,
      "longitude_deg": -64.18985484361939,
      "height_km": 1220.2665648127274,
      "semi_major_axis_km": 7595.811265130455,
      "eccentricity": 0.00018498,
      "inclination_deg": 87.8926,
      "raan_deg": 33.0818,
      "arg_perigee_deg": 77.928,
      "mean_anomaly_deg": 282.2055,
      "mean_motion_rev_day": 13.11419129
    },
    {
      "epoch": "2026-04-18T12:54:18.667584Z",
      "apogee_km": 1219.0848022827877,
      "perigee_km": 1216.2576424624203,
      "latitude_deg": 3.8425507891038585e-05,
      "longitude_deg": -7.317964337259701,
      "height_km": 1220.2696816074042,
      "semi_major_axis_km": 7595.808222372603,
      "eccentricity": 0.0001861,
      "inclination_deg": 87.8927,
      "raan_deg": 32.9151,
      "arg_perigee_deg": 78.258,
      "mean_anomaly_deg": 281.8757,
      "mean_motion_rev_day": 13.11419917
    }
  ]
}